{"type": "FeatureCollection", "features": [ {"type": "Feature", "properties": {"norad_id": 38552, "name": "METEOSAT-10 (MSG-3)", "group": "weather", "lat": 1.4686301065081524, "lon": 81.57920044136668, "alt_km": 35785.707913738945, "timestamp": "2025-12-17T23:38:06.507176+00:00", "meta": {"OBJECT_NAME": "METEOSAT-10 (MSG-3)", "OBJECT_ID": "2012-035B", "EPOCH": "2025-12-17T08:11:30.501600", "MEAN_MOTION": 1.00276196, "ECCENTRICITY": 7e-05, "INCLINATION": 4.2391, "RA_OF_ASC_NODE": 61.7122, "ARG_OF_PERICENTER": 268.6203, "MEAN_ANOMALY": 239.0035, "EPHEMERIS_TYPE": 0, "CLASSIFICATION_TYPE": "U", "NORAD_CAT_ID": 38552, "ELEMENT_SET_NO": 999, "REV_AT_EPOCH": 4903, "BSTAR": 0, "MEAN_MOTION_DOT": 1.7e-07, "MEAN_MOTION_DDOT": 0}, "tle": {"line1": "1 38552U 12035B   25351.34132525  .00000017  00000+0  00000+0 0  9991", "line2": "2 38552   4.2391  61.7122 0000700 268.6203 239.0035  1.00276196 49037"}}, "geometry": {"type": "Point", "coordinates": [81.57920044136668, 1.4686301065081524]}}, {"type": "Feature", "properties": {"norad_id": 38771, "name": "METOP-B", "group": "weather", "lat": -81.08622680731045, "lon": 118.73918832977783, "alt_km": 829.6014421902828, "timestamp": "2025-12-17T23:38:06.507190+00:00", "meta": {"OBJECT_NAME": "METOP-B", "OBJECT_ID": "2012-049A", "EPOCH": "2025-12-17T13:54:44.246592", "MEAN_MOTION": 14.21410164, "ECCENTRICITY": 0.00030834, "INCLINATION": 98.6794, "RA_OF_ASC_NODE": 41.4563, "ARG_OF_PERICENTER": 133.8618, "MEAN_ANOMALY": 226.2815, "EPHEMERIS_TYPE": 0, "CLASSIFICATION_TYPE": "U", "NORAD_CAT_ID": 38771, "ELEMENT_SET_NO": 999, "REV_AT_EPOCH": 68746, "BSTAR": 7.3661224e-05, "MEAN_MOTION_DOT": 1.17e-06, "MEAN_MOTION_DDOT": 0}, "tle": {"line1": "1 38771U 12049A   25351.57967878  .00000117  00000+0  73661-4 0  9990", "line2": "2 38771  98.6794  41.4563 0003083 133.8618 226.2815 14.21410164687469"}}, "geometry": {"type": "Point", "coordinates": [118.73918832977783, -81.08622680731045]}}, {"type": "Feature", "properties": {"norad_id": 39216, "name": "INSAT-3D", "group": "weather", "lat": 1.1620850795311963, "lon": -149.15153421468614, "alt_km": 35783.2038072251, "timestamp": "2025-12-17T23:38:06.507203+00:00", "meta": {"OBJECT_NAME": "INSAT-3D", "OBJECT_ID": "2013-038B", "EPOCH": "2025-12-17T13:56:34.001376", "MEAN_MOTION": 1.00267848, "ECCENTRICITY": 0.00012075, "INCLINATION": 1.4568, "RA_OF_ASC_NODE": 84.9436, "ARG_OF_PERICENTER": 166.2542, "MEAN_ANOMALY": 173.8823, "EPHEMERIS_TYPE": 0, "CLASSIFICATION_TYPE": "U", "NORAD_CAT_ID": 39216, "ELEMENT_SET_NO": 999, "REV_AT_EPOCH": 4525, "BSTAR": 0, "MEAN_MOTION_DOT": -3.16e-06, "MEAN_MOTION_DDOT": 0}, "tle": {"line1": "1 39216U 13038B   25351.58094909 -.00000316  00000+0  00000+0 0  9995", "line2": "2 39216   1.4568  84.9436 0001207 166.2542 173.8823  1.00267848 45251"}}, "geometry": {"type": "Point", "coordinates": [-149.15153421468614, 1.1620850795311963]}}, {"type": "Feature", "properties": {"norad_id": 39260, "name": "FENGYUN 3C", "group": "weather", "lat": 50.23306375126418, "lon": -40.91508597565514, "alt_km": 841.9942733176904, "timestamp": "2025-12-17T23:38:06.507214+00:00", "meta": {"OBJECT_NAME": "FENGYUN 3C", "OBJECT_ID": "2013-052A", "EPOCH": "2025-12-17T14:54:47.757312", "MEAN_MOTION": 14.15697859, "ECCENTRICITY": 0.00145489, "INCLINATION": 98.4767, "RA_OF_ASC_NODE": 329.0625, "ARG_OF_PERICENTER": 181.7404, "MEAN_ANOMALY": 178.3722, "EPHEMERIS_TYPE": 0, "CLASSIFICATION_TYPE": "U", "NORAD_CAT_ID": 39260, "ELEMENT_SET_NO": 999, "REV_AT_EPOCH": 63287, "BSTAR": 7.3030177e-05, "MEAN_MOTION_DOT": 1.02e-06, "MEAN_MOTION_DDOT": 0}, "tle": {"line1": "1 39260U 13052A   25351.62138608  .00000102  00000+0  73030-4 0  9990", "line2": "2 39260  98.4767 329.0625 0014548 181.7404 178.3722 14.15697859632878"}}, "geometry": {"type": "Point", "coordinates": [-40.91508597565514, 50.23306375126418]}}, {"type": "Feature", "properties": {"norad_id": 40069, "name": "METEOR-M 2", "group": "weather", "lat": 39.588303827903395, "lon": 156.46324126199931, "alt_km": 815.3580838441185, "timestamp": "2025-12-17T23:38:06.507225+00:00", "meta": {"OBJECT_NAME": "METEOR-M 2", "OBJECT_ID": "2014-037A", "EPOCH": "2025-12-17T14:31:55.505856", "MEAN_MOTION": 14.21388153, "ECCENTRICITY": 0.0005177, "INCLINATION": 98.4897, "RA_OF_ASC_NODE": 329.0037, "ARG_OF_PERICENTER": 194.3803, "MEAN_ANOMALY": 165.7229, "EPHEMERIS_TYPE": 0, "CLASSIFICATION_TYPE": "U", "NORAD_CAT_ID": 40069, "ELEMENT_SET_NO": 999, "REV_AT_EPOCH": 59352, "BSTAR": 2.1630908e-05, "MEAN_MOTION_DOT": 5e-08, "MEAN_MOTION_DDOT": 0}, "tle": {"line1": "1 40069U 14037A   25351.60550354  .00000005  00000+0  21631-4 0  9999", "line2": "2 40069  98.4897 329.0037 0005177 194.3803 165.7229 14.21388153593520"}}, "geometry": {"type": "Point", "coordinates": [156.46324126199931, 39.588303827903395]}}, {"type": "Feature", "properties": {"norad_id": 40267, "name": "HIMAWARI-8", "group": "weather", "lat": -0.00949619860040651, "lon": -137.97031885082336, "alt_km": 35784.69825103822, "timestamp": "2025-12-17T23:38:06.507236+00:00", "meta": {"OBJECT_NAME": "HIMAWARI-8", "OBJECT_ID": "2014-060A", "EPOCH": "2025-12-17T13:59:41.201664", "MEAN_MOTION": 1.00272227, "ECCENTRICITY": 8.538e-05, "INCLINATION": 0.0066, "RA_OF_ASC_NODE": 50.9133, "ARG_OF_PERICENTER": 240.1287, "MEAN_ANOMALY": 146.0068, "EPHEMERIS_TYPE": 0, "CLASSIFICATION_TYPE": "U", "NORAD_CAT_ID": 40267, "ELEMENT_SET_NO": 999, "REV_AT_EPOCH": 4093, "BSTAR": 0, "MEAN_MOTION_DOT": -2.5e-06, "MEAN_MOTION_DDOT": 0}, "tle": {"line1": "1 40267U 14060A   25351.58311576 -.00000250  00000+0  00000+0 0  9998", "line2": "2 40267   0.0066  50.9133 0000853 240.1287 146.0068  1.00272227 40938"}}, "geometry": {"type": "Point", "coordinates": [-137.97031885082336, -0.00949619860040651]}}, {"type": "Feature", "properties": {"norad_id": 40367, "name": "FENGYUN 2G", "group": "weather", "lat": 4.985566654280505, "lon": -179.2256492773093, "alt_km": 35789.9370849611, "timestamp": "2025-12-17T23:38:06.507249+00:00", "meta": {"OBJECT_NAME": "FENGYUN 2G", "OBJECT_ID": "2014-090A", "EPOCH": "2025-12-17T16:07:52.198752", "MEAN_MOTION": 1.00262466, "ECCENTRICITY": 0.00028289, "INCLINATION": 5.1805, "RA_OF_ASC_NODE": 75.0413, "ARG_OF_PERICENTER": 204.7271, "MEAN_ANOMALY": 148.1224, "EPHEMERIS_TYPE": 0, "CLASSIFICATION_TYPE": "U", "NORAD_CAT_ID": 40367, "ELEMENT_SET_NO": 999, "REV_AT_EPOCH": 4017, "BSTAR": 0, "MEAN_MOTION_DOT": -2.79e-06, "MEAN_MOTION_DDOT": 0}, "tle": {"line1": "1 40367U 14090A   25351.67213193 -.00000279  00000+0  00000+0 0  9999", "line2": "2 40367   5.1805  75.0413 0002828 204.7271 148.1224  1.00262466 40175"}}, "geometry": {"type": "Point", "coordinates": [-179.2256492773093, 4.985566654280505]}}, {"type": "Feature", "properties": {"norad_id": 40732, "name": "METEOSAT-11 (MSG-4)", "group": "weather", "lat": 0.9023499945543918, "lon": 90.56508511343385, "alt_km": 35788.27342788174, "timestamp": "2025-12-17T23:38:06.507261+00:00", "meta": {"OBJECT_NAME": "METEOSAT-11 (MSG-4)", "OBJECT_ID": "2015-034A", "EPOCH": "2025-12-17T04:48:34.026048", "MEAN_MOTION": 1.00268884, "ECCENTRICITY": 8.998e-05, "INCLINATION": 2.747, "RA_OF_ASC_NODE": 71.9903, "ARG_OF_PERICENTER": 132.6225, "MEAN_ANOMALY": 322.8401, "EPHEMERIS_TYPE": 0, "CLASSIFICATION_TYPE": "U", "NORAD_CAT_ID": 40732, "ELEMENT_SET_NO": 999, "REV_AT_EPOCH": 539, "BSTAR": 0, "MEAN_MOTION_DOT": 8.3e-07, "MEAN_MOTION_DDOT": 0}, "tle": {"line1": "1 40732U 15034A   25351.20039382  .00000083  00000+0  00000+0 0  9991", "line2": "2 40732   2.7470  71.9903 0000899 132.6225 322.8401  1.00268884  5398"}}, "geometry": {"type": "Point", "coordinates": [90.56508511343385, 0.9023499945543918]}}, {"type": "Feature", "properties": {"norad_id": 41105, "name": "ELEKTRO-L 2", "group": "weather", "lat": -0.6108650253046292, "lon": 66.9480816174316, "alt_km": 35798.6914188219, "timestamp": "2025-12-17T23:38:06.507273+00:00", "meta": {"OBJECT_NAME": "ELEKTRO-L 2", "OBJECT_ID": "2015-074A", "EPOCH": "2025-12-17T02:58:11.708832", "MEAN_MOTION": 1.00272669, "ECCENTRICITY": 0.00036686, "INCLINATION": 6.2364, "RA_OF_ASC_NODE": 72.7769, "ARG_OF_PERICENTER": 209.1186, "MEAN_ANOMALY": 194.171, "EPHEMERIS_TYPE": 0, "CLASSIFICATION_TYPE": "U", "NORAD_CAT_ID": 41105, "ELEMENT_SET_NO": 999, "REV_AT_EPOCH": 3668, "BSTAR": 0, "MEAN_MOTION_DOT": -9.8e-07, "MEAN_MOTION_DDOT": 0}, "tle": {"line1": "1 41105U 15074A   25351.12374663 -.00000098  00000+0  00000+0 0  9992", "line2": "2 41105   6.2364  72.7769 0003668 209.1186 194.1710  1.00272669 36681"}}, "geometry": {"type": "Point", "coordinates": [66.9480816174316, -0.6108650253046292]}}, {"type": "Feature", "properties": {"norad_id": 41752, "name": "INSAT-3DR", "group": "weather", "lat": 0.09861362481952055, "lon": 155.21220015974262, "alt_km": 35812.38366889918, "timestamp": "2025-12-17T23:38:06.507285+00:00", "meta": {"OBJECT_NAME": "INSAT-3DR", "OBJECT_ID": "2016-054A", "EPOCH": "2025-12-17T13:40:43.019040", "MEAN_MOTION": 1.00271592, "ECCENTRICITY": 0.00141591, "INCLINATION": 0.1039, "RA_OF_ASC_NODE": 86.6386, "ARG_OF_PERICENTER": 184.6913, "MEAN_ANOMALY": 94.2841, "EPHEMERIS_TYPE": 0, "CLASSIFICATION_TYPE": "U", "NORAD_CAT_ID": 41752, "ELEMENT_SET_NO": 999, "REV_AT_EPOCH": 3399, "BSTAR": 0, "MEAN_MOTION_DOT": -5.2e-07, "MEAN_MOTION_DDOT": 0}, "tle": {"line1": "1 41752U 16054A   25351.56994235 -.00000052  00000+0  00000+0 0  9990", "line2": "2 41752   0.1039  86.6386 0014159 184.6913  94.2841  1.00271592 33992"}}, "geometry": {"type": "Point", "coordinates": [155.21220015974262, 0.09861362481952055]}}]}